{"fetched_at":"2026-04-18T08:45:53Z","count":1271,"tles":[{"name":"SL-14 R/B","line1":"1 11672U 80005B   26106.84780423  .00000361  00000+0  33878-4 0  9993","line2":"2 11672  82.5114 271.0270 0016662  40.6619 319.5840 14.90974095482176","category":"Other"},{"name":"SL-3 R/B","line1":"1 12904U 81103B   26107.24220187  .00002720  00000+0  11846-3 0  9994","line2":"2 12904  81.1593 168.2018 0013844 152.7436 207.4525 15.21798076979094","category":"Other"},{"name":"SEASAT 1","line1":"1 10967U 78064A   26107.23211130  .00000160  00000+0  83271-4 0  9998","line2":"2 10967 108.0073 206.3665 0002807 265.6072  94.4753 14.46193301512087","category":"Other"},{"name":"SL-8 R/B","line1":"1 12139U 81003B   26106.92623840  .00009405  00000+0  23321-3 0  9998","line2":"2 12139  82.9371 254.6183 0257361  45.7821 316.4232 15.12604728320459","category":"Other"},{"name":"SL-3 R/B","line1":"1 13154U 82039B   26107.21850583  .00000999  00000+0  59040-4 0  9992","line2":"2 13154  81.1515 171.5242 0027961 193.9911 166.0543 15.10280260387454","category":"Other"},{"name":"SL-3 R/B","line1":"1 13403U 82079B   26107.24670768  .00003090  00000+0  12081-3 0  9999","line2":"2 13403  81.1451 147.5391 0024865  38.5259 321.7743 15.25253174383578","category":"Other"},{"name":"SL-8 R/B","line1":"1 08459U 75112B   26106.96904623  .00000063  00000+0  29311-4 0  9994","line2":"2 08459  74.0600 308.4968 0015103  27.0232 333.1705 14.38223449637377","category":"Other"},{"name":"SL-8 R/B","line1":"1 11574U 79089B   26107.17030075  .00000148  00000+0  52677-4 0  9993","line2":"2 11574  74.0713  19.8106 0015993 186.0303 174.0664 14.42375531441658","category":"Other"},{"name":"SL-3 R/B","line1":"1 12465U 81046B   26107.31789521  .00007604  00000+0  17125-3 0  9994","line2":"2 12465  81.2305 243.3174 0018156 243.5253 116.4128 15.42933070444388","category":"Other"},{"name":"SL-14 R/B","line1":"1 13553U 82092B   26107.07531696  .00000274  00000+0  27903-4 0  9998","line2":"2 13553  82.5646 105.4831 0020585 169.3761 253.5613 14.86699654334637","category":"Other"},{"name":"SL-3 R/B","line1":"1 10114U 77057B   26107.22912639  .00007311  00000+0  14887-3 0  9995","line2":"2 10114  97.5808 280.8900 0008128 138.1998 221.9873 15.46552340674285","category":"Other"},{"name":"SL-3 R/B","line1":"1 13068U 82013B   26107.23549280  .00002565  00000+0  10929-3 0  9992","line2":"2 13068  81.1712 115.5753 0023194  52.3635 307.9697 15.22338892410212","category":"Other"},{"name":"SL-14 R/B","line1":"1 11267U 79011B   26107.27912512  .00000370  00000+0  33983-4 0  9999","line2":"2 11267  82.5241  59.9446 0014494 290.9181  69.0487 14.91959033534538","category":"Other"}]}