[
    {
        "OBJECT_NAME": "SL-8 R/B",
        "OBJECT_ID": "1975-112B",
        "EPOCH": "2026-04-16T23:15:25.594272",
        "MEAN_MOTION": 14.38223449,
        "ECCENTRICITY": 0.00151036,
        "INCLINATION": 74.06,
        "RA_OF_ASC_NODE": 308.4968,
        "ARG_OF_PERICENTER": 27.0232,
        "MEAN_ANOMALY": 333.1705,
        "EPHEMERIS_TYPE": 0,
        "CLASSIFICATION_TYPE": "U",
        "NORAD_CAT_ID": 8459,
        "ELEMENT_SET_NO": 999,
        "REV_AT_EPOCH": 63737,
        "BSTAR": 2.9311387e-05,
        "MEAN_MOTION_DOT": 6.3e-07,
        "MEAN_MOTION_DDOT": 0
    },
    {
        "OBJECT_NAME": "SL-3 R/B",
        "OBJECT_ID": "1977-057B",
        "EPOCH": "2026-04-17T05:29:56.520096",
        "MEAN_MOTION": 15.4655234,
        "ECCENTRICITY": 0.00081284,
        "INCLINATION": 97.5808,
        "RA_OF_ASC_NODE": 280.89,
        "ARG_OF_PERICENTER": 138.1998,
        "MEAN_ANOMALY": 221.9873,
        "EPHEMERIS_TYPE": 0,
        "CLASSIFICATION_TYPE": "U",
        "NORAD_CAT_ID": 10114,
        "ELEMENT_SET_NO": 999,
        "REV_AT_EPOCH": 67428,
        "BSTAR": 0.0001488676,
        "MEAN_MOTION_DOT": 7.311e-05,
        "MEAN_MOTION_DDOT": 0
    },
    {
        "OBJECT_NAME": "SEASAT 1",
        "OBJECT_ID": "1978-064A",
        "EPOCH": "2026-04-17T05:34:14.416320",
        "MEAN_MOTION": 14.46193301,
        "ECCENTRICITY": 0.00028076,
        "INCLINATION": 108.0073,
        "RA_OF_ASC_NODE": 206.3665,
        "ARG_OF_PERICENTER": 265.6072,
        "MEAN_ANOMALY": 94.4753,
        "EPHEMERIS_TYPE": 0,
        "CLASSIFICATION_TYPE": "U",
        "NORAD_CAT_ID": 10967,
        "ELEMENT_SET_NO": 999,
        "REV_AT_EPOCH": 51208,
        "BSTAR": 8.327065e-05,
        "MEAN_MOTION_DOT": 1.6e-06,
        "MEAN_MOTION_DDOT": 0
    },
    {
        "OBJECT_NAME": "SL-14 R/B",
        "OBJECT_ID": "1979-011B",
        "EPOCH": "2026-04-17T06:41:56.410368",
        "MEAN_MOTION": 14.91959033,
        "ECCENTRICITY": 0.00144944,
        "INCLINATION": 82.5241,
        "RA_OF_ASC_NODE": 59.9446,
        "ARG_OF_PERICENTER": 290.9181,
        "MEAN_ANOMALY": 69.0487,
        "EPHEMERIS_TYPE": 0,
        "CLASSIFICATION_TYPE": "U",
        "NORAD_CAT_ID": 11267,
        "ELEMENT_SET_NO": 999,
        "REV_AT_EPOCH": 53453,
        "BSTAR": 3.3982943e-05,
        "MEAN_MOTION_DOT": 3.7e-06,
        "MEAN_MOTION_DDOT": 0
    },
    {
        "OBJECT_NAME": "SL-8 R/B",
        "OBJECT_ID": "1979-089B",
        "EPOCH": "2026-04-17T04:05:13.984800",
        "MEAN_MOTION": 14.42375531,
        "ECCENTRICITY": 0.00159935,
        "INCLINATION": 74.0713,
        "RA_OF_ASC_NODE": 19.8106,
        "ARG_OF_PERICENTER": 186.0303,
        "MEAN_ANOMALY": 174.0664,
        "EPHEMERIS_TYPE": 0,
        "CLASSIFICATION_TYPE": "U",
        "NORAD_CAT_ID": 11574,
        "ELEMENT_SET_NO": 999,
        "REV_AT_EPOCH": 44165,
        "BSTAR": 5.2677364e-05,
        "MEAN_MOTION_DOT": 1.48e-06,
        "MEAN_MOTION_DDOT": 0
    },
    {
        "OBJECT_NAME": "SL-14 R/B",
        "OBJECT_ID": "1980-005B",
        "EPOCH": "2026-04-16T20:20:50.285472",
        "MEAN_MOTION": 14.90974095,
        "ECCENTRICITY": 0.00166622,
        "INCLINATION": 82.5114,
        "RA_OF_ASC_NODE": 271.027,
        "ARG_OF_PERICENTER": 40.6619,
        "MEAN_ANOMALY": 319.584,
        "EPHEMERIS_TYPE": 0,
        "CLASSIFICATION_TYPE": "U",
        "NORAD_CAT_ID": 11672,
        "ELEMENT_SET_NO": 999,
        "REV_AT_EPOCH": 48217,
        "BSTAR": 3.3877636e-05,
        "MEAN_MOTION_DOT": 3.61e-06,
        "MEAN_MOTION_DDOT": 0
    },
    {
        "OBJECT_NAME": "SL-8 R/B",
        "OBJECT_ID": "1981-003B",
        "EPOCH": "2026-04-16T22:13:46.997760",
        "MEAN_MOTION": 15.12604728,
        "ECCENTRICITY": 0.02573616,
        "INCLINATION": 82.9371,
        "RA_OF_ASC_NODE": 254.6183,
        "ARG_OF_PERICENTER": 45.7821,
        "MEAN_ANOMALY": 316.4232,
        "EPHEMERIS_TYPE": 0,
        "CLASSIFICATION_TYPE": "U",
        "NORAD_CAT_ID": 12139,
        "ELEMENT_SET_NO": 999,
        "REV_AT_EPOCH": 32045,
        "BSTAR": 0.00023320992,
        "MEAN_MOTION_DOT": 9.405e-05,
        "MEAN_MOTION_DDOT": 0
    },
    {
        "OBJECT_NAME": "SL-3 R/B",
        "OBJECT_ID": "1981-046B",
        "EPOCH": "2026-04-17T07:37:46.146144",
        "MEAN_MOTION": 15.4293307,
        "ECCENTRICITY": 0.00181568,
        "INCLINATION": 81.2305,
        "RA_OF_ASC_NODE": 243.3174,
        "ARG_OF_PERICENTER": 243.5253,
        "MEAN_ANOMALY": 116.4128,
        "EPHEMERIS_TYPE": 0,
        "CLASSIFICATION_TYPE": "U",
        "NORAD_CAT_ID": 12465,
        "ELEMENT_SET_NO": 999,
        "REV_AT_EPOCH": 44438,
        "BSTAR": 0.00017125426,
        "MEAN_MOTION_DOT": 7.604e-05,
        "MEAN_MOTION_DDOT": 0
    },
    {
        "OBJECT_NAME": "SL-3 R/B",
        "OBJECT_ID": "1981-103B",
        "EPOCH": "2026-04-17T05:48:46.241568",
        "MEAN_MOTION": 15.21798076,
        "ECCENTRICITY": 0.00138444,
        "INCLINATION": 81.1593,
        "RA_OF_ASC_NODE": 168.2018,
        "ARG_OF_PERICENTER": 152.7436,
        "MEAN_ANOMALY": 207.4525,
        "EPHEMERIS_TYPE": 0,
        "CLASSIFICATION_TYPE": "U",
        "NORAD_CAT_ID": 12904,
        "ELEMENT_SET_NO": 999,
        "REV_AT_EPOCH": 97909,
        "BSTAR": 0.00011846407,
        "MEAN_MOTION_DOT": 2.72e-05,
        "MEAN_MOTION_DDOT": 0
    },
    {
        "OBJECT_NAME": "SL-3 R/B",
        "OBJECT_ID": "1982-013B",
        "EPOCH": "2026-04-17T05:39:06.577920",
        "MEAN_MOTION": 15.22338892,
        "ECCENTRICITY": 0.00231948,
        "INCLINATION": 81.1712,
        "RA_OF_ASC_NODE": 115.5753,
        "ARG_OF_PERICENTER": 52.3635,
        "MEAN_ANOMALY": 307.9697,
        "EPHEMERIS_TYPE": 0,
        "CLASSIFICATION_TYPE": "U",
        "NORAD_CAT_ID": 13068,
        "ELEMENT_SET_NO": 999,
        "REV_AT_EPOCH": 41021,
        "BSTAR": 0.00010929398,
        "MEAN_MOTION_DOT": 2.565e-05,
        "MEAN_MOTION_DDOT": 0
    },
    {
        "OBJECT_NAME": "SL-3 R/B",
        "OBJECT_ID": "1982-039B",
        "EPOCH": "2026-04-17T05:14:38.903712",
        "MEAN_MOTION": 15.1028026,
        "ECCENTRICITY": 0.00279618,
        "INCLINATION": 81.1515,
        "RA_OF_ASC_NODE": 171.5242,
        "ARG_OF_PERICENTER": 193.9911,
        "MEAN_ANOMALY": 166.0543,
        "EPHEMERIS_TYPE": 0,
        "CLASSIFICATION_TYPE": "U",
        "NORAD_CAT_ID": 13154,
        "ELEMENT_SET_NO": 999,
        "REV_AT_EPOCH": 38745,
        "BSTAR": 5.9040453e-05,
        "MEAN_MOTION_DOT": 9.99e-06,
        "MEAN_MOTION_DDOT": 0
    },
    {
        "OBJECT_NAME": "SL-3 R/B",
        "OBJECT_ID": "1982-079B",
        "EPOCH": "2026-04-17T05:55:15.543552",
        "MEAN_MOTION": 15.25253174,
        "ECCENTRICITY": 0.0024865,
        "INCLINATION": 81.1451,
        "RA_OF_ASC_NODE": 147.5391,
        "ARG_OF_PERICENTER": 38.5259,
        "MEAN_ANOMALY": 321.7743,
        "EPHEMERIS_TYPE": 0,
        "CLASSIFICATION_TYPE": "U",
        "NORAD_CAT_ID": 13403,
        "ELEMENT_SET_NO": 999,
        "REV_AT_EPOCH": 38357,
        "BSTAR": 0.00012081394,
        "MEAN_MOTION_DOT": 3.09e-05,
        "MEAN_MOTION_DDOT": 0
    },
    {
        "OBJECT_NAME": "SL-14 R/B",
        "OBJECT_ID": "1982-092B",
        "EPOCH": "2026-04-17T01:48:27.385344",
        "MEAN_MOTION": 14.86699654,
        "ECCENTRICITY": 0.00205854,
        "INCLINATION": 82.5646,
        "RA_OF_ASC_NODE": 105.4831,
        "ARG_OF_PERICENTER": 169.3761,
        "MEAN_ANOMALY": 253.5613,
        "EPHEMERIS_TYPE": 0,
        "CLASSIFICATION_TYPE": "U",
        "NORAD_CAT_ID": 13553,
        "ELEMENT_SET_NO": 999,
        "REV_AT_EPOCH": 33463,
        "BSTAR": 2.7903175e-05,
        "MEAN_MOTION_DOT": 2.74e-06,
        "MEAN_MOTION_DDOT": 0
    }
]